ONEWEB-0670             
1 55829U 23029AK  23228.91667824  .00000015  00000+0  00000+0 0  9999
2 55829  87.5979 136.2331 0001294  36.6116 300.0896 13.60527297 24042
ONEWEB-0671             
1 55830U 23029AL  23228.33137348  .00001865  00000+0  46268-2 0  9993
2 55830  87.9196 151.0911 0001998  75.8488 284.2866 13.19718140 22968
ONEWEB-0672             
1 55831U 23029AM  23228.91667824 -.00755746  00000+0 -13433+0 0  9996
2 55831  86.6848 128.3861 0001329 102.8810 180.2987 14.69855374 24562
ONEWEB-0673             
1 55832U 23029AN  23228.30608249  .00000076  00000+0  15626-3 0  9993
2 55832  87.9191 151.1771 0001945  84.8763 275.2591 13.19728902 22982
ONEWEB-0674             
1 55833U 23029AP  23228.91667824  .00000015  00000+0  00000+0 0  9994
2 55833  87.5937 136.2106 0001496 278.1757 233.2645 13.55963755 24012
ONEWEB-0675             
1 55834U 23029AQ  23228.09547761  .00000060  00000+0  11712-3 0  9997
2 55834  87.9213 151.1879 0002610  78.2794 281.8632 13.19725167 22977
ONEWEB-0720             
1 55835U 23029AR  23228.08706802  .00000080  00000+0  16644-3 0  9991
2 55835  87.9201 151.2000 0001909  97.8845 262.2505 13.19724542 22873
ONEWEB-0537             
1 56046U 23043A   23228.10825034  .00002336  00000+0  24603-3 0  9994
2 56046  86.8927  87.6449 0004550 127.3550 232.8092 14.88929287 22321
